METOP-C                 
1 43689U 18087A   26086.84067344  .00000091  00000+0  61663-4 0  9997
2 43689  98.6727 147.9022 0002004  74.8583 285.2815 14.21502753383271
GEO-KOMPSAT-2A          
1 43823U 18100A   26086.82052528 -.00000363  00000+0  00000+0 0  9995
2 43823   0.0518  32.6671 0001578  16.7520 199.4821  1.00270533 26815
METEOR-M2 2             
1 44387U 19038A   26086.89893755 -.00000104  00000+0 -25021-4 0  9993
2 44387  98.9114  73.0047 0000239 207.0164 153.1002 14.24340140349725
ARKTIKA-M 1             
1 47719U 21016A   26086.24697042 -.00000098  00000+0  00000+0 0  9990
2 47719  63.2179  69.3783 7253959 269.5617  15.0995  2.00616454 37142
FENGYUN 3E              
1 49008U 21062A   26086.81216976 -.00000332  00000+0 -13580-3 0  9993
2 49008  98.7523  91.1244 0001422   7.2138 352.9058 14.19894917245037
GOES 18                 
1 51850U 22021A   26086.73323703  .00000078  00000+0  00000+0 0  9999
2 51850   0.0440  14.1065 0000414  36.8906 261.1117  1.00272063  5776
NOAA 21 (JPSS-2)        
1 54234U 22150A   26086.83659154  .00000060  00000+0  49361-4 0  9993
2 54234  98.7574  26.8967 0002756  74.8225 285.3255 14.19556745175006
METEOSAT-12 (MTG-I1)    
1 54743U 22170C   26086.83160412 -.00000026  00000+0  00000+0 0  9999
2 54743   0.7302  25.2563 0001909 288.5887 170.4266  1.00272463 12166
TIANMU-1 03             
1 55973U 23039A   26086.89014543  .00017201  00000+0  36844-3 0  9990
2 55973  97.5198 257.8355 0003476  50.8000 309.3556 15.44836407168275
TIANMU-1 04             
1 55974U 23039B   26086.84388473  .00018803  00000+0  39659-3 0  9998
2 55974  97.5130 256.9430 0004007  44.2203 315.9365 15.45268908168276
TIANMU-1 05             
1 55975U 23039C   26086.80266432  .00016435  00000+0  35290-3 0  9991
2 55975  97.5176 257.3896 0003663  70.7610 289.4035 15.44772873168247
TIANMU-1 06             
1 55976U 23039D   26086.84338116  .00017717  00000+0  37361-3 0  9990
2 55976  97.5186 257.9889 0003870  64.2075 295.9573 15.45288014168272
FENGYUN 3G              
1 56232U 23055A   26086.84876256  .00029947  00000+0  47726-3 0  9990
2 56232  49.9933  45.4407 0004818  11.0851 349.0222 15.52929505167366
METEOR-M2 3             
1 57166U 23091A   26086.87509410  .00000007  00000+0  22006-4 0  9996
2 57166  98.6175 143.4842 0004813  57.8160 302.3485 14.24039458142947
TIANMU-1 07             
1 57399U 23101A   26086.84178928  .00006873  00000+0  24483-3 0  9996
2 57399  97.2694 139.3835 0004659  97.5667 262.6103 15.29233290149211
TIANMU-1 08             
1 57400U 23101B   26085.76300744  .00000258  00000+0  11605-4 0  9996
2 57400  97.2683 138.1078 0005815  81.6822 278.5077 15.29307245149049
TIANMU-1 09             
1 57401U 23101C   26086.85865235  .00006890  00000+0  24530-3 0  9997
2 57401  97.2640 138.6409 0005115  96.5309 263.6514 15.29250363149212
