[{"OBJECT_NAME":"METOP-C","OBJECT_ID":"2018-087A","EPOCH":"2026-03-27T20:10:34.185216","MEAN_MOTION":14.21502753,"ECCENTRICITY":0.0002004,"INCLINATION":98.6727,"RA_OF_ASC_NODE":147.9022,"ARG_OF_PERICENTER":74.8583,"MEAN_ANOMALY":285.2815,"EPHEMERIS_TYPE":0,"CLASSIFICATION_TYPE":"U","NORAD_CAT_ID":43689,"ELEMENT_SET_NO":999,"REV_AT_EPOCH":38327,"BSTAR":6.1663e-5,"MEAN_MOTION_DOT":9.1e-7,"MEAN_MOTION_DDOT":0},{"OBJECT_NAME":"GEO-KOMPSAT-2A","OBJECT_ID":"2018-100A","EPOCH":"2026-03-27T19:41:33.384192","MEAN_MOTION":1.00270533,"ECCENTRICITY":0.0001578,"INCLINATION":0.0518,"RA_OF_ASC_NODE":32.6671,"ARG_OF_PERICENTER":16.752,"MEAN_ANOMALY":199.4821,"EPHEMERIS_TYPE":0,"CLASSIFICATION_TYPE":"U","NORAD_CAT_ID":43823,"ELEMENT_SET_NO":999,"REV_AT_EPOCH":2681,"BSTAR":0,"MEAN_MOTION_DOT":-3.63e-6,"MEAN_MOTION_DDOT":0},{"OBJECT_NAME":"METEOR-M2 2","OBJECT_ID":"2019-038A","EPOCH":"2026-03-27T21:34:28.204320","MEAN_MOTION":14.2434014,"ECCENTRICITY":2.39e-5,"INCLINATION":98.9114,"RA_OF_ASC_NODE":73.0047,"ARG_OF_PERICENTER":207.0164,"MEAN_ANOMALY":153.1002,"EPHEMERIS_TYPE":0,"CLASSIFICATION_TYPE":"U","NORAD_CAT_ID":44387,"ELEMENT_SET_NO":999,"REV_AT_EPOCH":34972,"BSTAR":-2.5021e-5,"MEAN_MOTION_DOT":-1.04e-6,"MEAN_MOTION_DDOT":0},{"OBJECT_NAME":"ARKTIKA-M 1","OBJECT_ID":"2021-016A","EPOCH":"2026-03-27T05:55:38.244288","MEAN_MOTION":2.00616454,"ECCENTRICITY":0.7253959,"INCLINATION":63.2179,"RA_OF_ASC_NODE":69.3783,"ARG_OF_PERICENTER":269.5617,"MEAN_ANOMALY":15.0995,"EPHEMERIS_TYPE":0,"CLASSIFICATION_TYPE":"U","NORAD_CAT_ID":47719,"ELEMENT_SET_NO":999,"REV_AT_EPOCH":3714,"BSTAR":0,"MEAN_MOTION_DOT":-9.8e-7,"MEAN_MOTION_DDOT":0},{"OBJECT_NAME":"FENGYUN 3E","OBJECT_ID":"2021-062A","EPOCH":"2026-03-27T19:29:31.467264","MEAN_MOTION":14.19894917,"ECCENTRICITY":0.0001422,"INCLINATION":98.7523,"RA_OF_ASC_NODE":91.1244,"ARG_OF_PERICENTER":7.2138,"MEAN_ANOMALY":352.9058,"EPHEMERIS_TYPE":0,"CLASSIFICATION_TYPE":"U","NORAD_CAT_ID":49008,"ELEMENT_SET_NO":999,"REV_AT_EPOCH":24503,"BSTAR":-0.0001358,"MEAN_MOTION_DOT":-3.32e-6,"MEAN_MOTION_DDOT":0},{"OBJECT_NAME":"GOES 18","OBJECT_ID":"2022-021A","EPOCH":"2026-03-27T17:35:51.679392","MEAN_MOTION":1.00272063,"ECCENTRICITY":4.14e-5,"INCLINATION":0.044,"RA_OF_ASC_NODE":14.1065,"ARG_OF_PERICENTER":36.8906,"MEAN_ANOMALY":261.1117,"EPHEMERIS_TYPE":0,"CLASSIFICATION_TYPE":"U","NORAD_CAT_ID":51850,"ELEMENT_SET_NO":999,"REV_AT_EPOCH":577,"BSTAR":0,"MEAN_MOTION_DOT":7.8e-7,"MEAN_MOTION_DDOT":0},{"OBJECT_NAME":"NOAA 21 (JPSS-2)","OBJECT_ID":"2022-150A","EPOCH":"2026-03-27T20:04:41.509056","MEAN_MOTION":14.19556745,"ECCENTRICITY":0.0002756,"INCLINATION":98.7574,"RA_OF_ASC_NODE":26.8967,"ARG_OF_PERICENTER":74.8225,"MEAN_ANOMALY":285.3255,"EPHEMERIS_TYPE":0,"CLASSIFICATION_TYPE":"U","NORAD_CAT_ID":54234,"ELEMENT_SET_NO":999,"REV_AT_EPOCH":17500,"BSTAR":4.9361e-5,"MEAN_MOTION_DOT":6.0e-7,"MEAN_MOTION_DDOT":0},{"OBJECT_NAME":"METEOSAT-12 (MTG-I1)","OBJECT_ID":"2022-170C","EPOCH":"2026-03-27T19:57:30.595968","MEAN_MOTION":1.00272463,"ECCENTRICITY":0.0001909,"INCLINATION":0.7302,"RA_OF_ASC_NODE":25.2563,"ARG_OF_PERICENTER":288.5887,"MEAN_ANOMALY":170.4266,"EPHEMERIS_TYPE":0,"CLASSIFICATION_TYPE":"U","NORAD_CAT_ID":54743,"ELEMENT_SET_NO":999,"REV_AT_EPOCH":1216,"BSTAR":0,"MEAN_MOTION_DOT":-2.6e-7,"MEAN_MOTION_DDOT":0},{"OBJECT_NAME":"TIANMU-1 03","OBJECT_ID":"2023-039A","EPOCH":"2026-03-27T21:21:48.565152","MEAN_MOTION":15.44836407,"ECCENTRICITY":0.0003476,"INCLINATION":97.5198,"RA_OF_ASC_NODE":257.8355,"ARG_OF_PERICENTER":50.8,"MEAN_ANOMALY":309.3556,"EPHEMERIS_TYPE":0,"CLASSIFICATION_TYPE":"U","NORAD_CAT_ID":55973,"ELEMENT_SET_NO":999,"REV_AT_EPOCH":16827,"BSTAR":0.00036844,"MEAN_MOTION_DOT":0.00017201,"MEAN_MOTION_DDOT":0},{"OBJECT_NAME":"TIANMU-1 04","OBJECT_ID":"2023-039B","EPOCH":"2026-03-27T20:15:11.640672","MEAN_MOTION":15.45268908,"ECCENTRICITY":0.0004007,"INCLINATION":97.513,"RA_OF_ASC_NODE":256.943,"ARG_OF_PERICENTER":44.2203,"MEAN_ANOMALY":315.9365,"EPHEMERIS_TYPE":0,"CLASSIFICATION_TYPE":"U","NORAD_CAT_ID":55974,"ELEMENT_SET_NO":999,"REV_AT_EPOCH":16827,"BSTAR":0.00039659,"MEAN_MOTION_DOT":0.00018803,"MEAN_MOTION_DDOT":0},{"OBJECT_NAME":"TIANMU-1 05","OBJECT_ID":"2023-039C","EPOCH":"2026-03-27T19:15:50.197248","MEAN_MOTION":15.44772873,"ECCENTRICITY":0.0003663,"INCLINATION":97.5176,"RA_OF_ASC_NODE":257.3896,"ARG_OF_PERICENTER":70.761,"MEAN_ANOMALY":289.4035,"EPHEMERIS_TYPE":0,"CLASSIFICATION_TYPE":"U","NORAD_CAT_ID":55975,"ELEMENT_SET_NO":999,"REV_AT_EPOCH":16824,"BSTAR":0.0003529,"MEAN_MOTION_DOT":0.00016435,"MEAN_MOTION_DDOT":0},{"OBJECT_NAME":"TIANMU-1 06","OBJECT_ID":"2023-039D","EPOCH":"2026-03-27T20:14:28.132224","MEAN_MOTION":15.45288014,"ECCENTRICITY":0.000387,"INCLINATION":97.5186,"RA_OF_ASC_NODE":257.9889,"ARG_OF_PERICENTER":64.2075,"MEAN_ANOMALY":295.9573,"EPHEMERIS_TYPE":0,"CLASSIFICATION_TYPE":"U","NORAD_CAT_ID":55976,"ELEMENT_SET_NO":999,"REV_AT_EPOCH":16827,"BSTAR":0.00037361,"MEAN_MOTION_DOT":0.00017717,"MEAN_MOTION_DDOT":0},{"OBJECT_NAME":"FENGYUN 3G","OBJECT_ID":"2023-055A","EPOCH":"2026-03-27T20:22:13.085184","MEAN_MOTION":15.52929505,"ECCENTRICITY":0.0004818,"INCLINATION":49.9933,"RA_OF_ASC_NODE":45.4407,"ARG_OF_PERICENTER":11.0851,"MEAN_ANOMALY":349.0222,"EPHEMERIS_TYPE":0,"CLASSIFICATION_TYPE":"U","NORAD_CAT_ID":56232,"ELEMENT_SET_NO":999,"REV_AT_EPOCH":16736,"BSTAR":0.00047726,"MEAN_MOTION_DOT":0.00029947,"MEAN_MOTION_DDOT":0},{"OBJECT_NAME":"METEOR-M2 3","OBJECT_ID":"2023-091A","EPOCH":"2026-03-27T21:00:08.130240","MEAN_MOTION":14.24039458,"ECCENTRICITY":0.0004813,"INCLINATION":98.6175,"RA_OF_ASC_NODE":143.4842,"ARG_OF_PERICENTER":57.816,"MEAN_ANOMALY":302.3485,"EPHEMERIS_TYPE":0,"CLASSIFICATION_TYPE":"U","NORAD_CAT_ID":57166,"ELEMENT_SET_NO":999,"REV_AT_EPOCH":14294,"BSTAR":2.2006e-5,"MEAN_MOTION_DOT":7.0e-8,"MEAN_MOTION_DDOT":0},{"OBJECT_NAME":"TIANMU-1 07","OBJECT_ID":"2023-101A","EPOCH":"2026-03-27T20:12:10.593792","MEAN_MOTION":15.2923329,"ECCENTRICITY":0.0004659,"INCLINATION":97.2694,"RA_OF_ASC_NODE":139.3835,"ARG_OF_PERICENTER":97.5667,"MEAN_ANOMALY":262.6103,"EPHEMERIS_TYPE":0,"CLASSIFICATION_TYPE":"U","NORAD_CAT_ID":57399,"ELEMENT_SET_NO":999,"REV_AT_EPOCH":14921,"BSTAR":0.00024483,"MEAN_MOTION_DOT":6.873e-5,"MEAN_MOTION_DDOT":0},{"OBJECT_NAME":"TIANMU-1 08","OBJECT_ID":"2023-101B","EPOCH":"2026-03-26T18:18:43.842816","MEAN_MOTION":15.29307245,"ECCENTRICITY":0.00058156,"INCLINATION":97.2683,"RA_OF_ASC_NODE":138.1078,"ARG_OF_PERICENTER":81.6822,"MEAN_ANOMALY":278.5077,"EPHEMERIS_TYPE":0,"CLASSIFICATION_TYPE":"U","NORAD_CAT_ID":57400,"ELEMENT_SET_NO":999,"REV_AT_EPOCH":14904,"BSTAR":1.1604734e-5,"MEAN_MOTION_DOT":2.58e-6,"MEAN_MOTION_DDOT":0},{"OBJECT_NAME":"TIANMU-1 09","OBJECT_ID":"2023-101C","EPOCH":"2026-03-27T20:36:27.563040","MEAN_MOTION":15.29250363,"ECCENTRICITY":0.0005115,"INCLINATION":97.264,"RA_OF_ASC_NODE":138.6409,"ARG_OF_PERICENTER":96.5309,"MEAN_ANOMALY":263.6514,"EPHEMERIS_TYPE":0,"CLASSIFICATION_TYPE":"U","NORAD_CAT_ID":57401,"ELEMENT_SET_NO":999,"REV_AT_EPOCH":14921,"BSTAR":0.0002453,"MEAN_MOTION_DOT":6.89e-5,"MEAN_MOTION_DDOT":0}]
